STARLINK-34863          
1 66190U 25243P   26195.49880850  .00007073  00000+0  22028-3 0  9996
2 66190  53.1617  15.8950 0001304 119.5539 240.5594 15.34397538 40074
STARLINK-35061          
1 66191U 25243Q   26195.47566279  .00013028  00000+0  39604-3 0  9996
2 66191  53.1597  15.7577 0001157  91.6835 268.4301 15.34400496 40074
STARLINK-34937          
1 66192U 25243R   26195.52186379  .00015931  00000+0  48154-3 0  9997
2 66192  53.1595  15.3345 0001393 105.9380 254.1776 15.34406685 40083
STARLINK-35197          
1 66193U 25243S   26195.51884087  .00006018  00000+0  21516-3 0  9997
2 66193  53.1600  16.0146 0001380 107.3500 252.7652 15.30198747 40073
STARLINK-35374          
1 66194U 25243T   26195.63816406  .00013549  00000+0  44742-3 0  9994
2 66194  53.1596  14.6329 0001229  91.9343 268.1799 15.31711299 40101
STARLINK-34813          
1 66195U 25243U   26195.63951193  .00012614  00000+0  38384-3 0  9995
2 66195  53.1606  14.6443 0001145  94.7278 265.3855 15.34399917 40100
STARLINK-35409          
1 66196U 25243V   26195.52833682  .00010903  00000+0  37995-3 0  9992
2 66196  53.1588  16.0773 0001026 101.2656 258.8460 15.30178530 40071
STARLINK-35259          
1 66197U 25243W   26194.77389480  .00006469  00000+0  20242-3 0  9990
2 66197  53.1612  19.1949 0001211 101.5892 258.5246 15.34399735 39961
STARLINK-35518          
1 66198U 25243X   26195.49783771  .00004322  00000+0  15796-3 0  9996
2 66198  53.1583  16.5930 0002118 111.7625 248.3602 15.30202528 40069
STARLINK-35509          
1 66199U 25243Y   26195.51778582  .00011546  00000+0  40132-3 0  9992
2 66199  53.1595  16.0080 0001164  97.9657 262.1476 15.30201530 40070
STARLINK-35551          
1 66200U 25243Z   26195.52095167  .00012262  00000+0  42536-3 0  9993
2 66200  53.1599  16.0283 0001296  99.0308 261.0840 15.30206785 40074
STARLINK-35543          
1 66201U 25243AA  26195.52635000 -.00000868  00000+0 -16210-4 0  9992
2 66201  53.1603  15.3580 0001503 100.7970 259.3201 15.31683073 40081
STARLINK-35534          
1 66202U 25243AB  26195.52729370  .00005723  00000+0  20528-3 0  9996
2 66202  53.1591  16.0632 0001175 119.5761 240.5357 15.30184105 40079
STARLINK-35548          
1 66203U 25243AC  26195.53045002  .00010531  00000+0  36717-3 0  9991
2 66203  53.1594  16.0855 0001272  90.8052 269.3095 15.30200833 40077
STARLINK-35490          
1 66204U 25243AD  26195.47776819  .00007849  00000+0  24323-3 0  9990
2 66204  53.1586  15.7679 0001772  74.3473 285.7725 15.34397066 40079
STARLINK-35748          
1 66206U 25244A   26195.60051358  .00014308  00000+0  43386-3 0  9990
2 66206  53.1603 358.7619 0001574 122.0901 238.0254 15.34395509 41116
STARLINK-35747          
1 66207U 25244B   26195.63627527  .00008311  00000+0  25685-3 0  9990
2 66207  53.1600 358.9315 0000996  82.6064 277.5051 15.34398182 41110
STARLINK-35751          
1 66208U 25244C   26195.62996992  .00008246  00000+0  25494-3 0  9990
2 66208  53.1598 358.9452 0001210  84.1448 275.9693 15.34396954 41111
STARLINK-35750          
1 66209U 25244D   26195.61524162  .00013229  00000+0  40199-3 0  9992
2 66209  53.1584 358.8553 0000801  81.4410 278.6684 15.34396868 41116
STARLINK-35740          
1 66210U 25244E   26195.60261774  .00015508  00000+0  46919-3 0  9998
2 66210  53.1599 358.7730 0000733  87.9034 272.2053 15.34397415 41116
STARLINK-35723          
1 66211U 25244F   26195.62155325  .00014850  00000+0  44982-3 0  9992
2 66211  53.1594 358.8911 0000971 107.7725 252.3384 15.34395583 41105
STARLINK-35710          
1 66212U 25244G   26194.73398147  .00010653  00000+0  37138-3 0  9997
2 66212  53.1610   4.7199 0000892  86.6578 273.4525 15.30190877 40951
STARLINK-34204          
1 66213U 25244H   26194.74331350  .00013045  00000+0  39654-3 0  9995
2 66213  53.1611   3.3590 0000788  94.5068 265.6024 15.34400324 40973
STARLINK-35714          
1 66214U 25244J   26195.46088342  .00010320  00000+0  36007-3 0  9998
2 66214  53.1611   1.4370 0000979  38.4823 321.6248 15.30200847 41063
STARLINK-35712          
1 66215U 25244K   26194.74541758  .00018299  00000+0  55134-3 0  9999
2 66215  53.1601   3.3693 0001001 118.0614 242.0490 15.34403526 40979
STARLINK-35709          
1 66216U 25244L   26195.63783214  .00008976  00000+0  31486-3 0  9999
2 66216  53.1597   0.4062 0000918  89.9092 270.2014 15.30195073 41094
STARLINK-35700          
1 66217U 25244M   26195.63149994  .00004947  00000+0  17903-3 0  9993
2 66217  53.1601   0.3677 0000965  71.9118 288.1988 15.30200372 41080
STARLINK-35722          
1 66218U 25244N   26195.61103442  .00011030  00000+0  33702-3 0  9996
2 66218  53.1599 358.8209 0000979  74.5041 285.6069 15.34405767 41113
STARLINK-35737          
1 66219U 25244P   26195.62365497  .00016748  00000+0  50570-3 0  9991
2 66219  53.1587 358.9006 0001486 140.0472 220.0640 15.34399670 41111
STARLINK-35677          
1 66220U 25244Q   26195.60894376  .00012367  00000+0  37714-3 0  9992
2 66220  53.1592 358.8121 0000826  87.1183 272.9914 15.34349127 41115
