OBJECT_NAME,OBJECT_ID,EPOCH,MEAN_MOTION,ECCENTRICITY,INCLINATION,RA_OF_ASC_NODE,ARG_OF_PERICENTER,MEAN_ANOMALY,EPHEMERIS_TYPE,CLASSIFICATION_TYPE,NORAD_CAT_ID,ELEMENT_SET_NO,REV_AT_EPOCH,BSTAR,MEAN_MOTION_DOT,MEAN_MOTION_DDOT
STARLINK-34863,2025-243P,2026-07-14T11:58:17.054400,15.34397538,.00013041,53.1617,15.8950,119.5539,240.5594,0,U,66190,999,4007,.22028113E-3,.7073E-4,0
STARLINK-35061,2025-243Q,2026-07-14T11:24:57.265056,15.34400496,.00011572,53.1597,15.7577,91.6835,268.4301,0,U,66191,999,4007,.39604363E-3,.13028E-3,0
STARLINK-34937,2025-243R,2026-07-14T12:31:29.031456,15.34406685,.00013933,53.1595,15.3345,105.9380,254.1776,0,U,66192,999,4008,.4815369E-3,.15931E-3,0
STARLINK-35197,2025-243S,2026-07-14T12:27:07.851168,15.30198747,.00013806,53.1600,16.0146,107.3500,252.7652,0,U,66193,999,4007,.2151595E-3,.6018E-4,0
STARLINK-35374,2025-243T,2026-07-14T15:18:57.374784,15.31711299,.00012297,53.1596,14.6329,91.9343,268.1799,0,U,66194,999,4010,.44742336E-3,.13549E-3,0
STARLINK-34813,2025-243U,2026-07-14T15:20:53.830752,15.34399917,.0001145,53.1606,14.6443,94.7278,265.3855,0,U,66195,999,4010,.38384234E-3,.12614E-3,0
STARLINK-35409,2025-243V,2026-07-14T12:40:48.301248,15.30178530,.00010266,53.1588,16.0773,101.2656,258.8460,0,U,66196,999,4007,.37995067E-3,.10903E-3,0
STARLINK-35259,2025-243W,2026-07-13T18:34:24.510720,15.34399735,.00012117,53.1612,19.1949,101.5892,258.5246,0,U,66197,999,3996,.20241675E-3,.6469E-4,0
STARLINK-35518,2025-243X,2026-07-14T11:56:53.178144,15.30202528,.00021185,53.1583,16.5930,111.7625,248.3602,0,U,66198,999,4006,.15795971E-3,.4322E-4,0
STARLINK-35509,2025-243Y,2026-07-14T12:25:36.694848,15.30201530,.00011645,53.1595,16.0080,97.9657,262.1476,0,U,66199,999,4007,.4013186E-3,.11546E-3,0
STARLINK-35551,2025-243Z,2026-07-14T12:30:10.224288,15.30206785,.00012962,53.1599,16.0283,99.0308,261.0840,0,U,66200,999,4007,.42535999E-3,.12262E-3,0
STARLINK-35543,2025-243AA,2026-07-14T12:37:56.640000,15.31683073,.00015034,53.1603,15.3580,100.7970,259.3201,0,U,66201,999,4008,-.1621028E-4,-.868E-5,0
STARLINK-35534,2025-243AB,2026-07-14T12:39:18.175680,15.30184105,.00011756,53.1591,16.0632,119.5761,240.5357,0,U,66202,999,4007,.2052847E-3,.5723E-4,0
STARLINK-35548,2025-243AC,2026-07-14T12:43:50.881728,15.30200833,.00012726,53.1594,16.0855,90.8052,269.3095,0,U,66203,999,4007,.36717301E-3,.10531E-3,0
STARLINK-35490,2025-243AD,2026-07-14T11:27:59.171616,15.34397066,.00017724,53.1586,15.7679,74.3473,285.7725,0,U,66204,999,4007,.24322618E-3,.7849E-4,0
STARLINK-35748,2025-244A,2026-07-14T14:24:44.373312,15.34395509,.00015745,53.1603,358.7619,122.0901,238.0254,0,U,66206,999,4111,.43386199E-3,.14308E-3,0
STARLINK-35747,2025-244B,2026-07-14T15:16:14.183328,15.34398182,.00009969,53.1600,358.9315,82.6064,277.5051,0,U,66207,999,4111,.25684978E-3,.8311E-4,0
STARLINK-35751,2025-244C,2026-07-14T15:07:09.401088,15.34396954,.00012108,53.1598,358.9452,84.1448,275.9693,0,U,66208,999,4111,.25494282E-3,.8246E-4,0
STARLINK-35750,2025-244D,2026-07-14T14:45:56.875968,15.34396868,.00008015,53.1584,358.8553,81.4410,278.6684,0,U,66209,999,4111,.40199484E-3,.13229E-3,0
STARLINK-35740,2025-244E,2026-07-14T14:27:46.172736,15.34397415,.00007337,53.1599,358.7730,87.9034,272.2053,0,U,66210,999,4111,.46918886E-3,.15508E-3,0
STARLINK-35723,2025-244F,2026-07-14T14:55:02.200800,15.34395583,.00009716,53.1594,358.8911,107.7725,252.3384,0,U,66211,999,4110,.44981591E-3,.1485E-3,0
STARLINK-35710,2025-244G,2026-07-13T17:36:55.999008,15.30190877,.00008923,53.1610,4.7199,86.6578,273.4525,0,U,66212,999,4095,.37138126E-3,.10653E-3,0
STARLINK-34204,2025-244H,2026-07-13T17:50:22.286400,15.34400324,.00007884,53.1611,3.3590,94.5068,265.6024,0,U,66213,999,4097,.39653901E-3,.13045E-3,0
STARLINK-35714,2025-244J,2026-07-14T11:03:40.327488,15.30200847,.0000979,53.1611,1.4370,38.4823,321.6248,0,U,66214,999,4106,.3600739E-3,.1032E-3,0
STARLINK-35712,2025-244K,2026-07-13T17:53:24.078912,15.34403526,.0001001,53.1601,3.3693,118.0614,242.0490,0,U,66215,999,4097,.55133883E-3,.18299E-3,0
STARLINK-35709,2025-244L,2026-07-14T15:18:28.696896,15.30195073,.00009186,53.1597,0.4062,89.9092,270.2014,0,U,66216,999,4109,.3148587E-3,.8976E-4,0
STARLINK-35700,2025-244M,2026-07-14T15:09:21.594816,15.30200372,.00009653,53.1601,0.3677,71.9118,288.1988,0,U,66217,999,4108,.1790257E-3,.4947E-4,0
STARLINK-35722,2025-244N,2026-07-14T14:39:53.373888,15.34405767,.00009794,53.1599,358.8209,74.5041,285.6069,0,U,66218,999,4111,.33702308E-3,.1103E-3,0
STARLINK-35737,2025-244P,2026-07-14T14:58:03.789408,15.34399670,.00014861,53.1587,358.9006,140.0472,220.0640,0,U,66219,999,4111,.50570154E-3,.16748E-3,0
STARLINK-35677,2025-244Q,2026-07-14T14:36:52.740864,15.34349127,.00008266,53.1592,358.8121,87.1183,272.9914,0,U,66220,999,4111,.37714056E-3,.12367E-3,0
